NORAD_CAT_ID,OBJECT_NAME,OBJECT_TYPE,EPOCH,MEAN_MOTION,ECCENTRICITY,INCLINATION,RA_OF_ASC_NODE,ARG_OF_PERICENTER,MEAN_ANOMALY,BSTAR,MEAN_MOTION_DOT,MEAN_MOTION_DDOT,TLE_LINE0,TLE_LINE1,TLE_LINE2,SEMIMAJOR_AXIS,PERIOD,APOGEE,PERIGEE,DECAYED
49410.0,STARLINK-3147,PAYLOAD,2022-03-01 22:00:01,15.08848141,0.00026,53.2178,342.7078,49.4961,336.5269,-0.0014587,-0.00023435,0.0,0 STARLINK-3147,1 49410U 21104C   22060.91668981 -.00023435  00000-0 -14587-2 0  9990,2 49410  53.2178 342.7078 0002600  49.4961 336.5269 15.08848141  3601,6917.856,95.437,541.519,537.922,0.0
49410.0,STARLINK-3147,PAYLOAD,2022-03-02 14:00:01,15.08833092,0.0002559,53.2179,339.7146,49.7827,359.3746,0.0014731,0.0002323,0.0,0 STARLINK-3147,1 49410U 21104C   22061.58334491  .00023230  00000-0  14731-2 0  9992,2 49410  53.2179 339.7146 0002559  49.7827 359.3746 15.08833092 18081,6917.901999999999,95.438,541.5369999999998,537.996,0.0
49410.0,STARLINK-3147,PAYLOAD,2022-03-02 22:00:00,15.08863335,0.0002699,53.2178,338.2155,50.4229,10.3234,-0.0016659,-0.00026722,0.0,0 STARLINK-3147,1 49410U 21104C   22061.91667824 -.00026722  00000-0 -16659-2 0  9990,2 49410  53.2178 338.2155 0002699  50.4229  10.3234 15.08863335  3605,6917.809,95.436,541.5409999999998,537.807,0.0
49410.0,STARLINK-3147,PAYLOAD,2022-03-03 14:00:01,15.08818355,0.0002558,53.218,335.2257,50.5388,33.4416,0.0026244,0.00041703,0.0,0 STARLINK-3147,1 49410U 21104C   22062.58334491  .00041703  00000-0  26244-2 0  9990,2 49410  53.2180 335.2257 0002558  50.5388  33.4416 15.08818355 18234,6917.946999999999,95.439,541.581,538.0419999999998,0.0
49410.0,STARLINK-3147,PAYLOAD,2022-03-03 18:00:00,15.08845187,0.0002568,53.2181,334.4774,52.5168,217.2472,7.5955e-05,9.21e-06,0.0,0 STARLINK-3147,1 49410U 21104C   22062.75001157  .00000921  00000-0  75955-4 0  9991,2 49410  53.2181 334.4774 0002568  52.5168 217.2472 15.08845187  3566,6917.865,95.437,541.506,537.953,0.0
49410.0,STARLINK-3147,PAYLOAD,2022-03-04 06:00:02,15.08810026,0.0002691,53.2177,332.2347,46.2794,60.9431,0.0020267,0.00032089,0.0,0 STARLINK-3147,1 49410U 21104C   22063.25002315  .00032089  00000-0  20267-2 0  9998,2 49410  53.2177 332.2347 0002691  46.2794  60.9431 15.08810026 18338,6917.972,95.439,541.6990000000002,537.975,0.0
49410.0,STARLINK-3147,PAYLOAD,2022-03-04 14:00:01,15.0880833,0.0002497,53.2178,330.7367,51.1925,67.6147,0.0028211,0.00044858,0.0,0 STARLINK-3147,1 49410U 21104C   22063.58335648  .00044858  00000-0  28211-2 0  9996,2 49410  53.2178 330.7367 0002497  51.1925  67.6147 15.08808330  3606,6917.977,95.44,541.57,538.115,0.0
49410.0,STARLINK-3147,PAYLOAD,2022-03-04 22:00:00,15.08853711,0.0002612,53.2178,329.2414,51.2804,79.0422,-0.0014333,-0.00023037,0.0,0 STARLINK-3147,1 49410U 21104C   22063.91667824 -.00023037  00000-0 -14333-2 0  9995,2 49410  53.2178 329.2414 0002612  51.2804  79.0422 15.08853711  3592,6917.8380000000025,95.437,541.51,537.8969999999998,0.0
49410.0,STARLINK-3147,PAYLOAD,2022-03-05 06:00:00,15.08851216,0.0002676,53.2172,327.7457,47.9877,93.9374,-0.00034264,-5.739999999999999e-05,0.0,0 STARLINK-3147,1 49410U 21104C   22064.25001157 -.00005740  00000-0 -34264-3 0  9991,2 49410  53.2172 327.7457 0002676  47.9877  93.9374 15.08851216 18481,6917.846,95.437,541.562,537.86,0.0
49410.0,STARLINK-3147,PAYLOAD,2022-03-05 14:00:01,15.08812841,0.0002414,53.2172,326.2477,52.2551,101.2863,0.0025095,0.00039848,0.0,0 STARLINK-3147,1 49410U 21104C   22064.58334491  .00039848  00000-0  25095-2 0  9992,2 49410  53.2172 326.2477 0002414  52.2551 101.2863 15.08812841  3576,6917.9630000000025,95.439,541.498,538.158,0.0
49410.0,STARLINK-3147,PAYLOAD,2022-03-05 22:00:01,15.08852296,0.0002522,53.2172,324.7524,51.7286,113.459,-0.0011841,-0.00019091,0.0,0 STARLINK-3147,1 49410U 21104C   22064.91668981 -.00019091  00000-0 -11841-2 0  9997,2 49410  53.2172 324.7524 0002522  51.7286 113.4590 15.08852296  3616,6917.843000000003,95.437,541.452,537.9630000000002,0.0
49410.0,STARLINK-3147,PAYLOAD,2022-03-06 14:00:01,15.08820987,0.0002325,53.2165,321.7584,52.9347,135.4162,0.0028842,0.0004588999999999,0.0,0 STARLINK-3147,1 49410U 21104C   22065.58334491  .00045890  00000-0  28842-2 0  9990,2 49410  53.2165 321.7584 0002325  52.9347 135.4162 15.08820987 18687,6917.939,95.439,541.4119999999998,538.195,0.0
49410.0,STARLINK-3147,PAYLOAD,2022-03-06 22:00:00,15.08858111,0.0002398,53.2165,320.2633,51.1181,148.8328,-0.0028441,-0.00045292,0.0,0 STARLINK-3147,1 49410U 21104C   22065.91667824 -.00045292  00000-0 -28441-2 0  9999,2 49410  53.2165 320.2633 0002398  51.1181 148.8328 15.08858111  3601,6917.825,95.436,541.349,538.031,0.0
49410.0,STARLINK-3147,PAYLOAD,2022-03-07 06:00:00,15.08849892,0.0002405,53.216,318.7672,48.0398,163.4964,-0.0019805,-0.0003168,0.0,0 STARLINK-3147,1 49410U 21104C   22066.25001157 -.00031680  00000-0 -19805-2 0  9998,2 49410  53.2160 318.7672 0002405  48.0398 163.4964 15.08849892 18785,6917.85,95.437,541.379,538.0509999999998,0.0
49410.0,STARLINK-3147,PAYLOAD,2022-03-07 12:00:00,15.08808283,0.000219,53.2161,317.6435,50.9666,79.2774,0.0011489,0.00018028,0.0,0 STARLINK-3147,1 49410U 21104C   22066.50001157  .00018028  00000-0  11489-2 0  9995,2 49410  53.2161 317.6435 0002190  50.9666  79.2774 15.08808283  3632,6917.977,95.44,541.357,538.327,0.0
49410.0,STARLINK-3147,PAYLOAD,2022-03-07 22:00:00,15.08815187,0.0002302,53.216,315.7742,48.7262,185.9549,-0.0028239,-0.00044922,0.0,0 STARLINK-3147,1 49410U 21104C   22066.91667824 -.00044922  00000-0 -28239-2 0  9994,2 49410  53.2160 315.7742 0002302  48.7262 185.9549 15.08815187  3572,6917.956,95.439,541.414,538.229,0.0
49410.0,STARLINK-3147,PAYLOAD,2022-03-08 06:00:02,15.08801425,0.0002308,53.2158,314.2778,46.1002,200.1855,-0.0002709,-4.593e-05,0.0,0 STARLINK-3147,1 49410U 21104C   22067.25002315 -.00004593  00000-0 -27090-3 0  9995,2 49410  53.2158 314.2778 0002308  46.1002 200.1855 15.08801425 18938,6917.998000000001,95.44,541.46,538.2669999999998,0.0
49410.0,STARLINK-3147,PAYLOAD,2022-03-08 14:00:01,15.08799938,0.0002133,53.2159,312.7798,49.5424,208.2296,0.0034329,0.00054712,0.0,0 STARLINK-3147,1 49410U 21104C   22067.58334491  .00054712  00000-0  34329-2 0  9992,2 49410  53.2159 312.7798 0002133  49.5424 208.2296 15.08799938  3561,6918.003000000002,95.44,541.3430000000002,538.3919999999998,0.0
49410.0,STARLINK-3147,PAYLOAD,2022-03-08 22:00:00,15.08837816,0.0002302,53.216,311.285,47.2744,222.0697,-0.00079903,-0.00012982,0.0,0 STARLINK-3147,1 49410U 21104C   22067.91667824 -.00012982  00000-0 -79903-3 0  9991,2 49410  53.2160 311.2850 0002302  47.2744 222.0697 15.08837816 19030,6917.887,95.438,541.345,538.16,0.0
49410.0,STARLINK-3147,PAYLOAD,2022-03-09 14:00:01,15.08829345,0.0002211,53.2161,308.2904,50.6497,241.894,0.0030306,0.00048261,0.0,0 STARLINK-3147,1 49410U 21104C   22068.58334491  .00048261  00000-0  30306-2 0  9996,2 49410  53.2161 308.2904 0002211  50.6497 241.8940 15.08829345 19138,6917.913000000001,95.438,541.308,538.248,0.0
49410.0,STARLINK-3147,PAYLOAD,2022-03-09 22:00:01,15.088712300000005,0.0002355,53.2163,306.7956,47.4397,256.7699,-0.0034503,-0.00054831,0.0,0 STARLINK-3147,1 49410U 21104C   22068.91668981 -.00054831  00000-0 -34503-2 0  9992,2 49410  53.2163 306.7956 0002355  47.4397 256.7699 15.08871230  3591,6917.785,95.436,541.279,538.021,0.0
49410.0,STARLINK-3147,PAYLOAD,2022-03-10 06:00:00,15.08849882,0.0002312,53.2163,305.2990000000001,44.9214,270.8288,-0.0013263,-0.00021341,0.0,0 STARLINK-3147,1 49410U 21104C   22069.25001157 -.00021341  00000-0 -13263-2 0  9996,2 49410  53.2163 305.2990 0002312  44.9214 270.8288 15.08849882 19233,6917.85,95.437,541.315,538.116,0.0
49410.0,STARLINK-3147,PAYLOAD,2022-03-10 14:00:01,15.08835129,0.0002173,53.2168,303.8011,49.7809,277.5689,0.00041505,6.323e-05,0.0,0 STARLINK-3147,1 49410U 21104C   22069.58334491  .00006323  00000-0  41505-3 0  9994,2 49410  53.2168 303.8011 0002173  49.7809 277.5689 15.08835129  3561,6917.895,95.438,541.264,538.257,0.0
49410.0,STARLINK-3147,PAYLOAD,2022-03-10 22:00:01,15.08829678,0.0002315,53.2168,302.3064,45.839,293.1688,-0.00095653,-0.00015476,0.0,0 STARLINK-3147,1 49410U 21104C   22069.91668981 -.00015476  00000-0 -95653-3 0  9999,2 49410  53.2168 302.3064 0002315  45.8390 293.1688 15.08829678  3591,6917.9119999999975,95.438,541.378,538.175,0.0
49410.0,STARLINK-3147,PAYLOAD,2022-03-11 06:00:00,15.08848041,0.0002292,53.2167,300.8097,44.8803,305.6413,-0.0014705,-0.00023621,0.0,0 STARLINK-3147,1 49410U 21104C   22070.25001157 -.00023621  00000-0 -14705-2 0  9993,2 49410  53.2167 300.8097 0002292  44.8803 305.6413 15.08848041 19385,6917.856,95.437,541.306,538.135,0.0
49410.0,STARLINK-3147,PAYLOAD,2022-03-11 14:00:01,15.08824659,0.0002169,53.217,299.3121,50.5631,311.5566,0.0028546999999999,0.00045419,0.0,0 STARLINK-3147,1 49410U 21104C   22070.58334491  .00045419  00000-0  28547-2 0  9995,2 49410  53.2170 299.3121 0002169  50.5631 311.5566 15.08824659  3584,6917.927,95.439,541.293,538.2919999999998,0.0
49410.0,STARLINK-3147,PAYLOAD,2022-03-11 22:00:00,15.08853894,0.0002337,53.217,297.8175,46.9676,326.753,-0.00023231,-3.985e-05,0.0,0 STARLINK-3147,1 49410U 21104C   22070.91667824 -.00003985  00000-0 -23231-3 0  9991,2 49410  53.2170 297.8175 0002337  46.9676 326.7530 15.08853894 19490,6917.8380000000025,95.437,541.32,538.086,0.0
49410.0,STARLINK-3147,PAYLOAD,2022-03-12 14:00:01,15.08838623,0.000204,53.217,294.8231,49.453,347.4946,0.00070007,0.00010871,0.0,0 STARLINK-3147,1 49410U 21104C   22071.58334491  .00010871  00000-0  70007-3 0  9999,2 49410  53.2170 294.8231 0002040  49.4530 347.4946 15.08838623  3608,6917.885,95.438,541.161,538.3380000000002,0.0
49410.0,STARLINK-3147,PAYLOAD,2022-03-12 22:00:00,15.08828849,0.0002171,53.2168,293.3286,44.6622,3.8892,-0.00071414,-0.00011633,0.0,0 STARLINK-3147,1 49410U 21104C   22071.91667824 -.00011633  00000-0 -71414-3 0  9997,2 49410  53.2168 293.3286 0002171  44.6622   3.8892 15.08828849  3605,6917.9140000000025,95.438,541.281,538.278,0.0
